XRISM                   
1 57800U 23137A   24236.56434230  .00008568  00000+0  62772-3 0  9993
2 57800  31.0033 303.4437 0009867 155.7643 204.3459 15.02228541 52742
